{
  "type": "FeatureCollection",
  "name": "Jaipur Demo Wards",
  "note": "DEMONSTRATION DATA — Simplified approximate ward boundaries for SIH26083 prototype. Not official survey data.",
  "features": [
    {
      "type": "Feature",
      "properties": { "ward_id": 1, "ward_number": 1, "ward_name": "Amer", "area_km2": 12.5 },
      "geometry": { "type": "Polygon", "coordinates": [[[75.84,26.97],[75.86,26.97],[75.86,27.00],[75.84,27.00],[75.84,26.97]]] }
    },
    {
      "type": "Feature",
      "properties": { "ward_id": 2, "ward_number": 2, "ward_name": "Bani Park", "area_km2": 3.2 },
      "geometry": { "type": "Polygon", "coordinates": [[[75.77,26.91],[75.79,26.91],[75.79,26.93],[75.77,26.93],[75.77,26.91]]] }
    },
    {
      "type": "Feature",
      "properties": { "ward_id": 3, "ward_number": 3, "ward_name": "Chandpol", "area_km2": 2.8 },
      "geometry": { "type": "Polygon", "coordinates": [[[75.80,26.91],[75.82,26.91],[75.82,26.93],[75.80,26.93],[75.80,26.91]]] }
    },
    {
      "type": "Feature",
      "properties": { "ward_id": 4, "ward_number": 4, "ward_name": "Civil Lines", "area_km2": 4.1 },
      "geometry": { "type": "Polygon", "coordinates": [[[75.79,26.90],[75.81,26.90],[75.81,26.92],[75.79,26.92],[75.79,26.90]]] }
    },
    {
      "type": "Feature",
      "properties": { "ward_id": 5, "ward_number": 5, "ward_name": "Durgapura", "area_km2": 5.8 },
      "geometry": { "type": "Polygon", "coordinates": [[[75.79,26.84],[75.82,26.84],[75.82,26.87],[75.79,26.87],[75.79,26.84]]] }
    },
    {
      "type": "Feature",
      "properties": { "ward_id": 6, "ward_number": 6, "ward_name": "Gandhi Nagar", "area_km2": 3.5 },
      "geometry": { "type": "Polygon", "coordinates": [[[75.81,26.88],[75.83,26.88],[75.83,26.91],[75.81,26.91],[75.81,26.88]]] }
    },
    {
      "type": "Feature",
      "properties": { "ward_id": 7, "ward_number": 7, "ward_name": "Hasanpura", "area_km2": 6.2 },
      "geometry": { "type": "Polygon", "coordinates": [[[75.85,26.92],[75.88,26.92],[75.88,26.95],[75.85,26.95],[75.85,26.92]]] }
    },
    {
      "type": "Feature",
      "properties": { "ward_id": 8, "ward_number": 8, "ward_name": "Jhotwara", "area_km2": 8.9 },
      "geometry": { "type": "Polygon", "coordinates": [[[75.74,26.95],[75.78,26.95],[75.78,26.99],[75.74,26.99],[75.74,26.95]]] }
    },
    {
      "type": "Feature",
      "properties": { "ward_id": 9, "ward_number": 9, "ward_name": "Kanota", "area_km2": 14.2 },
      "geometry": { "type": "Polygon", "coordinates": [[[75.92,26.87],[75.96,26.87],[75.96,26.91],[75.92,26.91],[75.92,26.87]]] }
    },
    {
      "type": "Feature",
      "properties": { "ward_id": 10, "ward_number": 10, "ward_name": "Khatipura", "area_km2": 7.1 },
      "geometry": { "type": "Polygon", "coordinates": [[[75.72,26.92],[75.76,26.92],[75.76,26.96],[75.72,26.96],[75.72,26.92]]] }
    },
    {
      "type": "Feature",
      "properties": { "ward_id": 11, "ward_number": 11, "ward_name": "Lal Kothi", "area_km2": 2.9 },
      "geometry": { "type": "Polygon", "coordinates": [[[75.79,26.88],[75.81,26.88],[75.81,26.90],[75.79,26.90],[75.79,26.88]]] }
    },
    {
      "type": "Feature",
      "properties": { "ward_id": 12, "ward_number": 12, "ward_name": "Malviya Nagar", "area_km2": 5.4 },
      "geometry": { "type": "Polygon", "coordinates": [[[75.80,26.85],[75.83,26.85],[75.83,26.88],[75.80,26.88],[75.80,26.85]]] }
    },
    {
      "type": "Feature",
      "properties": { "ward_id": 13, "ward_number": 13, "ward_name": "Mansarovar", "area_km2": 7.8 },
      "geometry": { "type": "Polygon", "coordinates": [[[75.73,26.85],[75.77,26.85],[75.77,26.88],[75.73,26.88],[75.73,26.85]]] }
    },
    {
      "type": "Feature",
      "properties": { "ward_id": 14, "ward_number": 14, "ward_name": "Muralipura", "area_km2": 5.6 },
      "geometry": { "type": "Polygon", "coordinates": [[[75.79,26.95],[75.82,26.95],[75.82,26.97],[75.79,26.97],[75.79,26.95]]] }
    },
    {
      "type": "Feature",
      "properties": { "ward_id": 15, "ward_number": 15, "ward_name": "Nirman Nagar", "area_km2": 4.3 },
      "geometry": { "type": "Polygon", "coordinates": [[[75.77,26.87],[75.80,26.87],[75.80,26.90],[75.77,26.90],[75.77,26.87]]] }
    },
    {
      "type": "Feature",
      "properties": { "ward_id": 16, "ward_number": 16, "ward_name": "Raja Park", "area_km2": 3.0 },
      "geometry": { "type": "Polygon", "coordinates": [[[75.82,26.89],[75.84,26.89],[75.84,26.91],[75.82,26.91],[75.82,26.89]]] }
    },
    {
      "type": "Feature",
      "properties": { "ward_id": 17, "ward_number": 17, "ward_name": "Sanganer", "area_km2": 18.4 },
      "geometry": { "type": "Polygon", "coordinates": [[[75.79,26.77],[75.84,26.77],[75.84,26.82],[75.79,26.82],[75.79,26.77]]] }
    },
    {
      "type": "Feature",
      "properties": { "ward_id": 18, "ward_number": 18, "ward_name": "Shastri Nagar", "area_km2": 4.7 },
      "geometry": { "type": "Polygon", "coordinates": [[[75.77,26.93],[75.80,26.93],[75.80,26.96],[75.77,26.96],[75.77,26.93]]] }
    },
    {
      "type": "Feature",
      "properties": { "ward_id": 19, "ward_number": 19, "ward_name": "Sodala", "area_km2": 5.1 },
      "geometry": { "type": "Polygon", "coordinates": [[[75.76,26.89],[75.79,26.89],[75.79,26.92],[75.76,26.92],[75.76,26.89]]] }
    },
    {
      "type": "Feature",
      "properties": { "ward_id": 20, "ward_number": 20, "ward_name": "Tonk Road", "area_km2": 6.4 },
      "geometry": { "type": "Polygon", "coordinates": [[[75.82,26.84],[75.85,26.84],[75.85,26.87],[75.82,26.87],[75.82,26.84]]] }
    },
    {
      "type": "Feature",
      "properties": { "ward_id": 21, "ward_number": 21, "ward_name": "Vidhyadhar Nagar", "area_km2": 6.8 },
      "geometry": { "type": "Polygon", "coordinates": [[[75.77,26.94],[75.80,26.94],[75.80,26.97],[75.77,26.97],[75.77,26.94]]] }
    },
    {
      "type": "Feature",
      "properties": { "ward_id": 22, "ward_number": 22, "ward_name": "Vidhan Sabha", "area_km2": 4.2 },
      "geometry": { "type": "Polygon", "coordinates": [[[75.83,26.88],[75.86,26.88],[75.86,26.90],[75.83,26.90],[75.83,26.88]]] }
    },
    {
      "type": "Feature",
      "properties": { "ward_id": 23, "ward_number": 23, "ward_name": "Yojana Nagar", "area_km2": 5.5 },
      "geometry": { "type": "Polygon", "coordinates": [[[75.75,26.84],[75.78,26.84],[75.78,26.87],[75.75,26.87],[75.75,26.84]]] }
    },
    {
      "type": "Feature",
      "properties": { "ward_id": 24, "ward_number": 24, "ward_name": "Bajri Mandi", "area_km2": 3.8 },
      "geometry": { "type": "Polygon", "coordinates": [[[75.84,26.90],[75.87,26.90],[75.87,26.92],[75.84,26.92],[75.84,26.90]]] }
    },
    {
      "type": "Feature",
      "properties": { "ward_id": 25, "ward_number": 25, "ward_name": "Barkat Nagar", "area_km2": 4.0 },
      "geometry": { "type": "Polygon", "coordinates": [[[75.78,26.86],[75.81,26.86],[75.81,26.88],[75.78,26.88],[75.78,26.86]]] }
    }
  ]
}
